E-ST@R-II               
1 41459U 16025D   21089.11585627  .00001401  00000-0  72817-4 0  9997
2 41459  98.1262 220.6674 0160447 330.3263  28.8924 15.07664325270463
AAUSAT 4                
1 41460U 16025E   21089.10297895  .00003416  00000-0  16375-3 0  9999
2 41460  98.1263 224.1425 0147973 315.2870  43.6504 15.10533767270732
BEESAT-4                
1 41619U 16040W   21088.88523102  .00002456  00000-0  10073-3 0  9991
2 41619  97.2791 147.1844 0009141 248.6044 111.4219 15.25141244252883
CANX-7                  
1 41788U 16059F   21089.19482062  .00018343  00000-0  21789-2 0  9999
2 41788  98.2506 191.4342 0029278 110.4055 250.0306 14.84186227242106
RAVAN                   
1 41849U 16067B   21088.76198336  .00000941  00000-0  82906-4 0  9991
2 41849  97.9545 209.9154 0009418  25.3690 334.7993 14.98958309239350
CELTEE 1                
1 41850U 16067C   21088.76549806 -.00000134  00000-0 -62407-5 0  9996
2 41850  97.9441 206.7328 0009373  25.7803 334.3884 14.97398230239192
OPTICUBE 04             
1 41851U 16067D   21088.75060114  .00000400  00000-0  39945-4 0  9990
2 41851  97.9430 206.1637 0009637  30.3660 329.8117 14.97074990239163
AEROCUBE 8D             
1 41852U 16067E   21088.76183868 -.00000025  00000-0  31600-5 0  9999
2 41852  97.9429 206.0371 0010270  28.1145 332.0629 14.97152691239141
AEROCUBE 8C             
1 41853U 16067F   21089.13422840  .00001030  00000-0  94495-4 0  9994
2 41853  97.9421 206.2904 0010411  30.2697 329.9123 14.97116495239192
PROMETHEUS 2-1          
1 41854U 16067G   21088.76504063  .00000244  00000-0  26163-4 0  9994
2 41854  97.9435 206.4521 0010831  26.9230 333.2551 14.97567995239161
PROMETHEUS 2-3          
1 41855U 16067H   21088.76331135  .00000249  00000-0  26552-4 0  9990
2 41855  97.9440 206.4983 0011072  27.4887 332.6917 14.97584248239161
INS-1B                  
1 41954U 17008G   21088.86425779  .00002424  00000-0  97402-4 0  9994
2 41954  97.3157 153.7024 0009262  24.4839 335.6838 15.25853181228870
BGUSAT                  
1 41999U 17008BD  21088.74846489  .00004149  00000-0  14816-3 0  9998
2 41999  97.3312 159.5484 0007948  31.2266 328.9445 15.29376690228525
DIDO-2                  
1 42000U 17008BE  21089.10929887  .00001603  00000-0  66655-4 0  9998
2 42000  97.3162 154.2773 0009272  41.8751 318.3194 15.25182794228297
PEASSS                  
1 42015U 17008BV  21088.72213573  .00002157  00000-0  85153-4 0  9998
2 42015  97.3195 156.1430 0007194  46.4212 313.7623 15.26586888228855
AL-FARABI 1             
1 42016U 17008BW  21088.76080676  .00003173  00000-0  11982-3 0  9996
2 42016  97.3238 157.7722 0006924  45.7242 314.4565 15.27713007229063
NAYIF-1 (EO-88)         
1 42017U 17008BX  21088.66569260  .00003165  00000-0  11934-3 0  9995
2 42017  97.3233 157.6871 0006981  45.1604 315.0202 15.27763095229070
UCLSAT                  
1 42765U 17036A   21088.71856343  .00002550  00000-0  10623-3 0  9994
2 42765  97.2598 140.7723 0012761  99.1368 261.1314 15.24532704210029
LITUANICASAT-2          
1 42768U 17036D   21088.73868770  .00004354  00000-0  17285-3 0  9991
2 42768  97.2669 141.3561 0015746  89.6884 270.6159 15.25741534209317
AALTO-1                 
1 42775U 17036L   21088.70108698  .00001556  00000-0  69967-4 0  9998
2 42775  97.2579 137.6976 0015353  95.6150 264.6838 15.22473643209069
URSA MAIOR              
1 42776U 17036M   21088.84823419  .00001670  00000-0  74355-4 0  9993
2 42776  97.2591 138.2613 0015159  94.7717 265.5251 15.22718210209108
COMPASS 2               
1 42777U 17036N   21088.88014533  .00003069  00000-0  12458-3 0  9996
2 42777  97.2653 141.7375 0013598  90.6285 269.6512 15.25253365209284
DIAMOND RED             
1 42783U 17036U   21088.85738807  .00001780  00000-0  77019-4 0  9990
2 42783  97.2605 139.8501 0013484 101.3885 258.8868 15.23629160209199
PEGASUS                 
1 42784U 17036V   21088.87375125  .00002023  00000-0  85857-4 0  9993
2 42784  97.2604 140.4874 0013343 100.0842 260.1902 15.24131864209233
DIAMOND GREEN           
1 42785U 17036W   21088.85633703  .00001825  00000-0  78865-4 0  9991
2 42785  97.2603 139.8937 0013441 102.2622 258.0121 15.23639557209267
DIAMOND BLUE            
1 42786U 17036X   21088.85537240  .00001812  00000-0  78356-4 0  9992
2 42786  97.2602 139.8861 0013273 102.4508 257.8215 15.23635688209263
NUDTSAT                 
1 42787U 17036Y   21088.97702996  .00003515  00000-0  13959-3 0  9997
2 42787  97.2659 142.7383 0012533  91.3615 268.9060 15.25904336209218
SUCHAI                  
1 42788U 17036Z   21088.71562353  .00002793  00000-0  11499-3 0  9995
2 42788  97.2617 141.2219 0012835  98.3362 261.9332 15.24860415209332
SKCUBE                  
1 42789U 17036AA  21088.86295096  .00002320  00000-0  96671-4 0  9991
2 42789  97.2608 141.1140 0012751  98.3880 261.8804 15.24623887209262
VZLUSAT-1               
1 42790U 17036AB  21088.90436875  .00003172  00000-0  12633-3 0  9991
2 42790  97.2639 142.6585 0012137  95.1201 265.1424 15.25886827209358
ROBUSTA-1B              
1 42792U 17036AD  21088.77827551  .00002687  00000-0  11075-3 0  9992
2 42792  97.2611 141.3809 0012341  98.6898 261.5738 15.24853625209281
CICERO 6                
1 42793U 17036AE  21088.91452909  .00001702  00000-0  73333-4 0  9993
2 42793  97.2588 140.4830 0011732 101.2307 259.0249 15.23849810209322
D-SAT                   
1 42794U 17036AF  21088.59290063  .00000440  00000-0  42848-4 0  9994
2 42794  97.4687 112.7015 0126966 132.3476 228.8581 14.91493541205150
CORVUS BC2              
1 42846U 17042X   21088.90732988  .00000147  00000-0  19520-4 0  9996
2 42846  97.4850 324.9442 0010825  50.7092 309.5086 14.92255434201975
CORVUS BC1              
1 42847U 17042Y   21089.08470552  .00000246  00000-0  29180-4 0  9996
2 42847  97.4853 325.3358 0010420  49.4360 310.7765 14.92358524202001
MIRATA                  
1 43015U 17073C   21088.98436418  .00001270  00000-0  10229-3 0  9990
2 43015  97.7092 356.3208 0249966 196.2284 163.0820 14.80471132181454
MAKERSAT 0              
1 43016U 17073D   21088.71025927  .00000931  00000-0  76815-4 0  9998
2 43016  97.7127 356.1423 0253496 199.0319 160.1290 14.79802714181387
DELLINGR (RBLE)         
1 43021U 98067NJ  21088.80780415  .00101344  14969-4  31716-3 0  9999
2 43021  51.6274 246.5853 0002077 312.4206  47.6624 15.91408361191912
AEROCUBE 7B (OCSD B)    
1 43042U 17071F   21088.73488765  .00007510  00000-0  15363-3 0  9990
2 43042  51.6356 103.6254 0004291  22.5314 337.5862 15.47176684186485
AEROCUBE 7C (OCSD C)    
1 43043U 17071G   21088.74912142  .00007724  00000-0  15865-3 0  9997
2 43043  51.6349 103.7311 0004566  25.3455 334.7756 15.47011090186452
CHEFSAT                 
1 43044U 17071H   21088.89094113  .00024723  00000-0  34747-3 0  9991
2 43044  51.6349  74.3216 0004076  47.3849 312.7486 15.56535728186867
ASGARDIA 1              
1 43049U 17071N   21088.74650612  .00007535  00000-0  15537-3 0  9990
2 43049  51.6367 103.0773 0002677  45.1763 314.9442 15.46938170186465
ISARA                   
1 43050U 17071P   21088.88294974  .00017905  00000-0  27595-3 0  9991
2 43050  51.6326  80.0688 0002642  58.4326 301.6923 15.54241107186783
PROPCUBE 2 (FAUNA)      
1 43052U 17071R   21088.75546742  .00009355  00000-0  18582-3 0  9998
2 43052  51.6358 100.1440 0002602  43.6414 316.4779 15.47711026186495
CORVUS BC3              
1 43118U 18004H   21088.71512737  .00001586  00000-0  68283-4 0  9993
2 43118  97.4095 162.2179 0011472 125.3797 234.8513 15.24035347178433
MICROMAS-2A             
1 43131U 18004W   21089.16534169  .00003788  00000-0  14623-3 0  9995
2 43131  97.4161 165.6043 0010111 119.5033 240.7215 15.26851162178669
SPACEBEE-4              
1 43139U 18004AE  21088.70777663  .00005206  00000-0  18831-3 0  9992
2 43139  97.4221 167.1845 0009408 120.3616 239.8555 15.28832015178704
SPACEBEE-3              
1 43140U 18004AF  21088.96262488  .00006670  00000-0  22963-3 0  9993
2 43140  97.4244 168.7006 0008962 117.0621 243.1535 15.30346051178811
SPACEBEE-2              
1 43141U 18004AG  21088.80405429  .00006508  00000-0  22055-3 0  9993
2 43141  97.4263 169.0273 0008858 116.5553 243.6597 15.30867878178813
SPACEBEE-1              
1 43142U 18004AH  21088.75130448  .00007475  00000-0  24810-3 0  9999
2 43142  97.4270 169.4586 0008726 116.3403 243.8735 15.31491681178822
CICERO 7                
1 43143U 18004AJ  21088.77557003  .00003258  00000-0  12656-3 0  9992
2 43143  97.4139 165.3073 0008312 127.4277 232.7719 15.26756111178629
GOMX-4B                 
1 43196U 18015E   21088.80464555  .00000984  00000-0  42436-4 0  9998
2 43196  97.4712 221.9335 0018485 175.4841 184.6567 15.24811314175376
GOMX-4A                 
1 43197U 18015F   21089.12298010  .00002104  00000-0  86353-4 0  9998
2 43197  97.4694 222.4510 0018653 175.6695 357.8123 15.25221157175444
TEMPEST-D               
1 43547U 98067NV  21088.96361791  .00182347  00000-0  69832-3 0  9990
2 43547  51.6330 298.2373 0003384 290.1713  69.8927 15.86378720154321
AEROCUBE 12A            
1 43556U 18046C   21088.86105116  .00002080  00000-0  79740-4 0  9990
2 43556  51.6401 172.9308 0007354 236.6690 123.3587 15.31292014151085
AEROCUBE 12B            
1 43557U 18046D   21088.86133047  .00002124  00000-0  82430-4 0  9994
2 43557  51.6400 174.4056 0007493 235.4389 124.5885 15.30769096151013
SURFSAT                 
1 43614U 18070B   21088.77647050  .00005254  00000-0  12582-3 0  9996
2 43614  93.0229 272.8701 0012519 321.4052  38.6307 15.41387241142399
CP7 (DAVE)              
1 43615U 18070C   21088.71458940  .00005122  00000-0  12375-3 0  9993
2 43615  93.0233 272.8104 0012723 321.3633  38.6711 15.41123897142375
ELFIN-B                 
1 43616U 18070D   21089.07078079  .00007633  00000-0  16976-3 0  9995
2 43616  93.0190 273.0615 0012541 318.1576  41.8721 15.43584270142528
